{
"type": "FeatureCollection",
"name": "partially_completely_burnt_2020_11_10",
"crs": { "type": "name", "properties": { "name": "urn:ogc:def:crs:OGC:1.3:CRS84" } },
"features": [
{ "type": "Feature", "properties": { "field_id": 1, "field_name": "Complete_1", "field_category": "completely_burnt" }, "geometry": { "type": "Polygon", "coordinates": [ [ [ 75.919242679191413, 30.432459563248518 ], [ 75.919586001945319, 30.432496566003561 ], [ 75.91957527310926, 30.433116360063469 ], [ 75.919189035011115, 30.433134861318141 ], [ 75.919242679191413, 30.432459563248518 ] ] ] } },
{ "type": "Feature", "properties": { "field_id": 2, "field_name": "Complete_2", "field_category": "completely_burnt" }, "geometry": { "type": "Polygon", "coordinates": [ [ [ 75.921381536414032, 30.384990259965569 ], [ 75.921376171996002, 30.384411808896559 ], [ 75.921773138930206, 30.384402553651618 ], [ 75.921757045676117, 30.385105949768462 ], [ 75.921386900832061, 30.385110577357715 ], [ 75.921381536414032, 30.384990259965569 ] ] ] } },
{ "type": "Feature", "properties": { "field_id": 3, "field_name": "Complete_3", "field_category": "completely_burnt" }, "geometry": { "type": "Polygon", "coordinates": [ [ [ 75.931145654619002, 30.317084801331713 ], [ 75.931564079225325, 30.316806952492989 ], [ 75.931636498809013, 30.316894938122115 ], [ 75.931833641176567, 30.316840525955904 ], [ 75.931859792756981, 30.316861943479257 ], [ 75.931757198274397, 30.316918092123036 ], [ 75.931403146684431, 30.317207517651298 ], [ 75.931145654619002, 30.317084801331713 ] ] ] } },
{ "type": "Feature", "properties": { "field_id": 4, "field_name": "Complete_4", "field_category": "completely_burnt" }, "geometry": { "type": "Polygon", "coordinates": [ [ [ 75.926003102698061, 30.323069271259861 ], [ 75.926308874525759, 30.322865527967625 ], [ 75.92638464690117, 30.322946562229799 ], [ 75.926363859810564, 30.323073901784309 ], [ 75.926174764075014, 30.323273014128318 ], [ 75.92602992478821, 30.323152620666384 ], [ 75.926003102698061, 30.323069271259861 ] ] ] } },
{ "type": "Feature", "properties": { "field_id": 5, "field_name": "Complete_5", "field_category": "completely_burnt" }, "geometry": { "type": "Polygon", "coordinates": [ [ [ 75.915527137424476, 30.345787903399206 ], [ 75.915623697296141, 30.345658278689235 ], [ 75.915806087162025, 30.345505506524511 ], [ 75.91618696084214, 30.345635131420611 ], [ 75.91568270554734, 30.346079558332494 ], [ 75.915527137424476, 30.345787903399206 ] ] ] } },
{ "type": "Feature", "properties": { "field_id": 6, "field_name": "Complete_6", "field_category": "completely_burnt" }, "geometry": { "type": "Polygon", "coordinates": [ [ [ 75.883219412505198, 30.382620702058592 ], [ 75.883240870177318, 30.382093142029017 ], [ 75.883530548750926, 30.382065375632813 ], [ 75.883525184276508, 30.382343038641142 ], [ 75.883514455496837, 30.382666979118316 ], [ 75.883219412505198, 30.382620702058592 ] ] ] } },
{ "type": "Feature", "properties": { "field_id": 7, "field_name": "Complete_7", "field_category": "completely_burnt" }, "geometry": { "type": "Polygon", "coordinates": [ [ [ 75.869671667696849, 30.324328139563999 ], [ 75.86966093886079, 30.32386509196499 ], [ 75.870170558573619, 30.323735438245052 ], [ 75.870369042040721, 30.324059572223177 ], [ 75.869671667696849, 30.324328139563999 ] ] ] } },
{ "type": "Feature", "properties": { "field_id": 8, "field_name": "Complete_8", "field_category": "completely_burnt" }, "geometry": { "type": "Polygon", "coordinates": [ [ [ 75.923257776399254, 30.309603939967754 ], [ 75.923724480767845, 30.30932143874394 ], [ 75.923944421907066, 30.309664145041349 ], [ 75.923531613275543, 30.309895076294346 ], [ 75.923257776399254, 30.309603939967754 ] ] ] } },
{ "type": "Feature", "properties": { "field_id": 9, "field_name": "Complete_9", "field_category": "completely_burnt" }, "geometry": { "type": "Polygon", "coordinates": [ [ [ 75.926002259621328, 30.314692201226801 ], [ 75.92606395042867, 30.314645892011004 ], [ 75.926782782444661, 30.315493347196053 ], [ 75.926691587338155, 30.315535025130757 ], [ 75.926002259621328, 30.314692201226801 ] ] ] } },
{ "type": "Feature", "properties": { "field_id": 10, "field_name": "Complete_10", "field_category": "completely_burnt" }, "geometry": { "type": "Polygon", "coordinates": [ [ [ 75.929115614094641, 30.324116005107808 ], [ 75.928847393193152, 30.324375311368716 ], [ 75.928616723217871, 30.323764088370027 ], [ 75.928675731816199, 30.323717783442 ], [ 75.929115614094641, 30.324116005107808 ] ] ] } },
{ "type": "Feature", "properties": { "field_id": 11, "field_name": "Complete_11", "field_category": "completely_burnt" }, "geometry": { "type": "Polygon", "coordinates": [ [ [ 75.919790244205032, 30.356829381024117 ], [ 75.92034814368013, 30.357273757094681 ], [ 75.920235490901504, 30.357364020737347 ], [ 75.919666862590347, 30.356903443842729 ], [ 75.919790244205032, 30.356829381024117 ] ] ] } },
{ "type": "Feature", "properties": { "field_id": 12, "field_name": "Complete_12", "field_category": "completely_burnt" }, "geometry": { "type": "Polygon", "coordinates": [ [ [ 75.875486278657931, 30.44478827476475 ], [ 75.875652575616854, 30.444633345165816 ], [ 75.875958347444552, 30.444871520417717 ], [ 75.875813508157748, 30.445038011510366 ], [ 75.875486278657931, 30.44478827476475 ] ] ] } },
{ "type": "Feature", "properties": { "field_id": 13, "field_name": "Complete_13", "field_category": "completely_burnt" }, "geometry": { "type": "Polygon", "coordinates": [ [ [ 75.86903323344238, 30.4445558399457 ], [ 75.869752065458371, 30.445221804766792 ], [ 75.869215623655393, 30.445046064491997 ], [ 75.86852897814758, 30.445591783257068 ], [ 75.868142740049436, 30.445351297398123 ], [ 75.86903323344238, 30.4445558399457 ] ] ] } },
{ "type": "Feature", "properties": { "field_id": 14, "field_name": "Complete_14", "field_category": "completely_burnt" }, "geometry": { "type": "Polygon", "coordinates": [ [ [ 75.885626953202006, 30.442326473211018 ], [ 75.887550097435707, 30.442238600495578 ], [ 75.887593012788074, 30.442400471248909 ], [ 75.88560281332137, 30.442460594600519 ], [ 75.885626953202006, 30.442326473211018 ] ] ] } },
{ "type": "Feature", "properties": { "field_id": 15, "field_name": "Complete_15", "field_category": "completely_burnt" }, "geometry": { "type": "Polygon", "coordinates": [ [ [ 75.860501749173423, 30.354722883239212 ], [ 75.860710961476585, 30.354945076311004 ], [ 75.86102209836443, 30.354778431653997 ], [ 75.861343962804099, 30.35455623810418 ], [ 75.861445886746665, 30.354644189738547 ], [ 75.861105247121671, 30.354905729816974 ], [ 75.860900057938267, 30.355020297928178 ], [ 75.860727054730674, 30.355181155896869 ], [ 75.860571486279866, 30.355065430649315 ], [ 75.860362274304649, 30.354829350815724 ], [ 75.860501749173423, 30.354722883239212 ] ] ] } },
{ "type": "Feature", "properties": { "field_id": 16, "field_name": "Complete_16", "field_category": "completely_burnt" }, "geometry": { "type": "Polygon", "coordinates": [ [ [ 75.860307219987376, 30.311368343567043 ], [ 75.860902670388683, 30.311692518459925 ], [ 75.860838297372325, 30.312294554701875 ], [ 75.860511067872508, 30.312303816769006 ], [ 75.860602262979015, 30.311812926004183 ], [ 75.860194567208751, 30.311544324356248 ], [ 75.860307219987376, 30.311368343567043 ] ] ] } },
{ "type": "Feature", "properties": { "field_id": 17, "field_name": "Complete_17", "field_category": "completely_burnt" }, "geometry": { "type": "Polygon", "coordinates": [ [ [ 75.886586804785168, 30.441788254489115 ], [ 75.886608262467476, 30.44160788302781 ], [ 75.887450476497662, 30.441589383371909 ], [ 75.887455840918221, 30.441746630335352 ], [ 75.886656542252638, 30.441788254489115 ], [ 75.886586804785168, 30.441788254489115 ] ] ] } },
{ "type": "Feature", "properties": { "field_id": 18, "field_name": "Complete_18", "field_category": "completely_burnt" }, "geometry": { "type": "Polygon", "coordinates": [ [ [ 75.869830820258656, 30.443332805791655 ], [ 75.870029303135226, 30.443152437331751 ], [ 75.870209011139224, 30.443295807206702 ], [ 75.869785222114871, 30.443749039618162 ], [ 75.869586738647769, 30.443559422233001 ], [ 75.869830820258656, 30.443332805791655 ] ] ] } },
{ "type": "Feature", "properties": { "field_id": 19, "field_name": "partial_1", "field_category": "partially_burnt" }, "geometry": { "type": "MultiPolygon", "coordinates": [ [ [ [ 75.872540164760849, 30.3945558704043 ], [ 75.873009551338455, 30.39456512468746 ], [ 75.8730175979655, 30.39475252373245 ], [ 75.872580397896073, 30.394759464430908 ], [ 75.872540164760849, 30.3945558704043 ] ] ] ] } },
{ "type": "Feature", "properties": { "field_id": 20, "field_name": "partial_2", "field_category": "partially_burnt" }, "geometry": { "type": "MultiPolygon", "coordinates": [ [ [ [ 75.874498603841829, 30.394853290895281 ], [ 75.87446641733365, 30.3945108828452 ], [ 75.874809740087557, 30.39450162855692 ], [ 75.874841926595735, 30.394844036639441 ], [ 75.874498603841829, 30.394853290895281 ] ] ] ] } },
{ "type": "Feature", "properties": { "field_id": 21, "field_name": "partial_3", "field_category": "partially_burnt" }, "geometry": { "type": "MultiPolygon", "coordinates": [ [ [ [ 75.878074432335609, 30.40280437032153 ], [ 75.87885227247105, 30.40252213816807 ], [ 75.878964925246635, 30.402947799415848 ], [ 75.878085161165572, 30.40297093312099 ], [ 75.878074432335609, 30.40280437032153 ] ] ], [ [ [ 75.879661290163568, 30.40291262547537 ], [ 75.879661290163568, 30.402431442718619 ], [ 75.879790036196283, 30.40241293564215 ], [ 75.879832951540521, 30.40291262547537 ], [ 75.879661290163568, 30.40291262547537 ] ] ] ] } },
{ "type": "Feature", "properties": { "field_id": 22, "field_name": "partial_4", "field_category": "partially_burnt" }, "geometry": { "type": "MultiPolygon", "coordinates": [ [ [ [ 75.889373493528097, 30.409291156552211 ], [ 75.889749002790182, 30.409291156552211 ], [ 75.889845562314719, 30.409471587686571 ], [ 75.889276934003561, 30.409462334815998 ], [ 75.889373493528097, 30.409291156552211 ] ] ] ] } },
{ "type": "Feature", "properties": { "field_id": 23, "field_name": "partial_5", "field_category": "partially_burnt" }, "geometry": { "type": "MultiPolygon", "coordinates": [ [ [ [ 75.896082788205177, 30.42793515121468 ], [ 75.896329551434548, 30.427902772290651 ], [ 75.896399288868935, 30.428531846604969 ], [ 75.896147161221535, 30.4285549742598 ], [ 75.896082788205177, 30.42793515121468 ] ] ] ] } },
{ "type": "Feature", "properties": { "field_id": 24, "field_name": "partial_6", "field_category": "partially_burnt" }, "geometry": { "type": "MultiPolygon", "coordinates": [ [ [ [ 75.858747752633846, 30.321752107218309 ], [ 75.858983787027157, 30.32174284604422 ], [ 75.85902402016238, 30.322108661754111 ], [ 75.858785303560055, 30.322099400613769 ], [ 75.858747752633846, 30.321752107218309 ] ] ] ] } },
{ "type": "Feature", "properties": { "field_id": 25, "field_name": "partial_7", "field_category": "partially_burnt" }, "geometry": { "type": "MultiPolygon", "coordinates": [ [ [ [ 75.915508900815212, 30.430953555271198 ], [ 75.915736888581478, 30.43095586797951 ], [ 75.915728841954433, 30.431136259058778 ], [ 75.915508900815212, 30.431136259058778 ], [ 75.915508900815212, 30.430953555271198 ] ] ] ] } },
{ "type": "Feature", "properties": { "field_id": 26, "field_name": "partial_8", "field_category": "partially_burnt" }, "geometry": { "type": "MultiPolygon", "coordinates": [ [ [ [ 75.929699660239123, 30.38069137487344 ], [ 75.929705024657153, 30.380554854724629 ], [ 75.930002749857806, 30.38055138387087 ], [ 75.930004090962314, 30.38070641521718 ], [ 75.929699660239123, 30.38069137487344 ] ] ] ] } },
{ "type": "Feature", "properties": { "field_id": 27, "field_name": "partial_9", "field_category": "partially_burnt" }, "geometry": { "type": "MultiPolygon", "coordinates": [ [ [ [ 75.928952717133285, 30.391635478750949 ], [ 75.930253588505508, 30.391623910549949 ], [ 75.930248224087478, 30.39182519705189 ], [ 75.92895003492427, 30.39183445159372 ], [ 75.928952717133285, 30.391635478750949 ] ] ] ] } },
{ "type": "Feature", "properties": { "field_id": 28, "field_name": "partial_10", "field_category": "partially_burnt" }, "geometry": { "type": "MultiPolygon", "coordinates": [ [ [ [ 75.901184656904647, 30.447096417902451 ], [ 75.901731827543685, 30.447119541154532 ], [ 75.901801564978072, 30.447813236166589 ], [ 75.901254394339034, 30.447840983864381 ], [ 75.901184656904647, 30.447096417902451 ] ] ] ] } },
{ "type": "Feature", "properties": { "field_id": 29, "field_name": "partial_11", "field_category": "partially_burnt" }, "geometry": { "type": "MultiPolygon", "coordinates": [ [ [ [ 75.872507769168365, 30.444133104304889 ], [ 75.872725028098571, 30.4439273008635 ], [ 75.873044210971344, 30.44416085305026 ], [ 75.872818905414093, 30.44433197013894 ], [ 75.872507769168365, 30.444133104304889 ] ] ] ] } },
{ "type": "Feature", "properties": { "field_id": 30, "field_name": "partial_12", "field_category": "partially_burnt" }, "geometry": { "type": "MultiPolygon", "coordinates": [ [ [ [ 75.81263325889617, 30.4615736704806 ], [ 75.812783462601004, 30.46137946380108 ], [ 75.813429874973593, 30.46182798816594 ], [ 75.813279671268759, 30.461987514375188 ], [ 75.81263325889617, 30.4615736704806 ] ] ] ] } },
{ "type": "Feature", "properties": { "field_id": 31, "field_name": "partial_13", "field_category": "partially_burnt" }, "geometry": { "type": "MultiPolygon", "coordinates": [ [ [ [ 75.871740655281826, 30.358425255453529 ], [ 75.871735290863796, 30.358476172816712 ], [ 75.871737973072811, 30.35857800746351 ], [ 75.871501938679501, 30.35857800746351 ], [ 75.87149523367583, 30.358432198854359 ], [ 75.871740655281826, 30.358425255453529 ] ] ] ] } },
{ "type": "Feature", "properties": { "field_id": 32, "field_name": "partial_14", "field_category": "partially_burnt" }, "geometry": { "type": "MultiPolygon", "coordinates": [ [ [ [ 75.866500507036179, 30.40521711638964 ], [ 75.866543422380417, 30.404918697867689 ], [ 75.867533157506912, 30.40495571106727 ], [ 75.867495606580704, 30.405196296522352 ], [ 75.866500507036179, 30.40521711638964 ] ] ] ] } },
{ "type": "Feature", "properties": { "field_id": 33, "field_name": "partial_15", "field_category": "partially_burnt" }, "geometry": { "type": "MultiPolygon", "coordinates": [ [ [ [ 75.898239528638584, 30.424099304720741 ], [ 75.898260986310703, 30.423511833758091 ], [ 75.898641859990818, 30.42350720798844 ], [ 75.898657953244907, 30.42411318194479 ], [ 75.898438012105686, 30.424108556203649 ], [ 75.898239528638584, 30.424099304720741 ] ] ] ] } },
{ "type": "Feature", "properties": { "field_id": 34, "field_name": "partial_16", "field_category": "partially_burnt" }, "geometry": { "type": "MultiPolygon", "coordinates": [ [ [ [ 75.922599992518329, 30.387560607983421 ], [ 75.923093518977069, 30.387477313431638 ], [ 75.92307742572298, 30.387953942407421 ], [ 75.922610721354388, 30.38775496166144 ], [ 75.922599992518329, 30.387560607983421 ] ] ] ] } },
{ "type": "Feature", "properties": { "field_id": 35, "field_name": "partial_17", "field_category": "partially_burnt" }, "geometry": { "type": "MultiPolygon", "coordinates": [ [ [ [ 75.919304128993346, 30.38312867242724 ], [ 75.919819113124206, 30.383188832287878 ], [ 75.919813748706176, 30.383286013522959 ], [ 75.919309493411376, 30.383276758171409 ], [ 75.919304128993346, 30.38312867242724 ] ] ] ] } },
{ "type": "Feature", "properties": { "field_id": 36, "field_name": "partial_18", "field_category": "partially_burnt" }, "geometry": { "type": "MultiPolygon", "coordinates": [ [ [ [ 75.846180081230926, 30.313638000627929 ], [ 75.84634637818985, 30.31363568514271 ], [ 75.846343695980835, 30.313763036746391 ], [ 75.846180081230926, 30.313763036746369 ], [ 75.846180081230926, 30.313638000627929 ] ] ] ] } },
{ "type": "Feature", "properties": { "field_id": 37, "field_name": "partial_19", "field_category": "partially_burnt" }, "geometry": { "type": "MultiPolygon", "coordinates": [ [ [ [ 75.900363100565883, 30.433323501209241 ], [ 75.900845898188564, 30.43330962529539 ], [ 75.900848580397579, 30.433455322292289 ], [ 75.900360418356868, 30.433476136131191 ], [ 75.900363100565883, 30.433323501209241 ] ] ] ] } },
{ "type": "Feature", "properties": { "field_id": 38, "field_name": "partial_20", "field_category": "partially_burnt" }, "geometry": { "type": "MultiPolygon", "coordinates": [ [ [ [ 75.87906853461844, 30.441544889674059 ], [ 75.879149000888887, 30.44153563984494 ], [ 75.879170458561006, 30.442331121940889 ], [ 75.879095356708589, 30.442335746817811 ], [ 75.87906853461844, 30.441544889674059 ] ] ] ] } },
{ "type": "Feature", "properties": { "field_id": 39, "field_name": "partial_21", "field_category": "partially_burnt" }, "geometry": { "type": "MultiPolygon", "coordinates": [ [ [ [ 75.860156894397278, 30.431531745275041 ], [ 75.860441208552857, 30.431545621441831 ], [ 75.860441208552857, 30.431753763706681 ], [ 75.860151529979248, 30.431735262190021 ], [ 75.860156894397278, 30.431531745275041 ] ] ] ] } },
{ "type": "Feature", "properties": { "field_id": 40, "field_name": "partial_22", "field_category": "partially_burnt" }, "geometry": { "type": "MultiPolygon", "coordinates": [ [ [ [ 75.855396815295279, 30.439940571596502 ], [ 75.855608709807456, 30.439931321615159 ], [ 75.855611392016471, 30.440064290012199 ], [ 75.855411567444861, 30.440064290012199 ], [ 75.855396815295279, 30.439940571596502 ] ] ] ] } },
{ "type": "Feature", "properties": { "field_id": 41, "field_name": "partial_23", "field_category": "partially_burnt" }, "geometry": { "type": "MultiPolygon", "coordinates": [ [ [ [ 75.861760684084103, 30.34722294095474 ], [ 75.861760684084103, 30.34714655611532 ], [ 75.862133511137174, 30.347148870808279 ], [ 75.862128146719144, 30.347225255645931 ], [ 75.861760684084103, 30.34722294095474 ] ] ] ] } },
{ "type": "Feature", "properties": { "field_id": 42, "field_name": "partial_24", "field_category": "partially_burnt" }, "geometry": { "type": "MultiPolygon", "coordinates": [ [ [ [ 75.865719047393142, 30.304905912122649 ], [ 75.865716365184127, 30.304729919414491 ], [ 75.865955081786453, 30.304729919414509 ], [ 75.865952399577438, 30.304903596431199 ], [ 75.86576196273738, 30.304905912122649 ], [ 75.865719047393142, 30.304905912122649 ] ] ] ] } },
{ "type": "Feature", "properties": { "field_id": 43, "field_name": "partial_25", "field_category": "partially_burnt" }, "geometry": { "type": "MultiPolygon", "coordinates": [ [ [ [ 75.933500213911103, 30.376038777027979 ], [ 75.933628959943817, 30.376043405046609 ], [ 75.933612866689728, 30.37623315362077 ], [ 75.933473391820954, 30.37621926959125 ], [ 75.933500213911103, 30.376038777027979 ] ] ] ] } },
{ "type": "Feature", "properties": { "field_id": 44, "field_name": "partial_26", "field_category": "partially_burnt" }, "geometry": { "type": "MultiPolygon", "coordinates": [ [ [ [ 75.924478077358415, 30.369986248064809 ], [ 75.924751662677934, 30.369981619759471 ], [ 75.924754344886949, 30.370238490375218 ], [ 75.924502217239549, 30.37024543281494 ], [ 75.924478077358415, 30.369986248064809 ] ] ] ] } },
{ "type": "Feature", "properties": { "field_id": 45, "field_name": "partial_27", "field_category": "partially_burnt" }, "geometry": { "type": "MultiPolygon", "coordinates": [ [ [ [ 75.901601411159831, 30.341715241134349 ], [ 75.901832081327953, 30.341715241116841 ], [ 75.901810623660879, 30.34187727867749 ], [ 75.901606775567714, 30.341868019410931 ], [ 75.901601411159831, 30.341715241134349 ] ] ] ] } },
{ "type": "Feature", "properties": { "field_id": 46, "field_name": "partial_28", "field_category": "partially_burnt" }, "geometry": { "type": "MultiPolygon", "coordinates": [ [ [ [ 75.915489457451741, 30.30764743997754 ], [ 75.91565843661968, 30.307645124350831 ], [ 75.91564234336559, 30.307774799362551 ], [ 75.915481410824697, 30.307774799362551 ], [ 75.915489457451741, 30.30764743997754 ] ] ] ] } },
{ "type": "Feature", "properties": { "field_id": 47, "field_name": "partial_29", "field_category": "partially_burnt" }, "geometry": { "type": "MultiPolygon", "coordinates": [ [ [ [ 75.932260706581843, 30.2970649192062 ], [ 75.932378723778498, 30.2970718668359 ], [ 75.932378723778498, 30.29717376534829 ], [ 75.932271435417903, 30.29717376534829 ], [ 75.932260706581843, 30.2970649192062 ] ] ] ] } },
{ "type": "Feature", "properties": { "field_id": 48, "field_name": "partial_30", "field_category": "partially_burnt" }, "geometry": { "type": "MultiPolygon", "coordinates": [ [ [ [ 75.928992687140223, 30.326832134400831 ], [ 75.929169712935206, 30.326836764747409 ], [ 75.929172395144221, 30.32695252334036 ], [ 75.929008780394312, 30.326957153681249 ], [ 75.928992687140223, 30.326832134400831 ] ] ] ] } },
{ "type": "Feature", "properties": { "field_id": 49, "field_name": "partial_31", "field_category": "partially_burnt" }, "geometry": { "type": "MultiPolygon", "coordinates": [ [ [ [ 75.924877369322829, 30.33318786425075 ], [ 75.925030255236678, 30.333192494296821 ], [ 75.925070488371901, 30.33356521228708 ], [ 75.924920284667067, 30.333567527301231 ], [ 75.924877369322829, 30.33318786425075 ] ] ] ] } },
{ "type": "Feature", "properties": { "field_id": 50, "field_name": "partial_32", "field_category": "partially_burnt" }, "geometry": { "type": "MultiPolygon", "coordinates": [ [ [ [ 75.872796744376927, 30.356828484406851 ], [ 75.872925490409642, 30.356828484406851 ], [ 75.872933537036687, 30.35692569184565 ], [ 75.872807473212987, 30.35693032076891 ], [ 75.872796744376927, 30.356828484406851 ] ] ] ] } },
{ "type": "Feature", "properties": { "field_id": 51, "field_name": "partial_33", "field_category": "partially_burnt" }, "geometry": { "type": "MultiPolygon", "coordinates": [ [ [ [ 75.87139310822603, 30.35666730129277 ], [ 75.871714973323066, 30.356653414484398 ], [ 75.871704244486494, 30.356917263506819 ], [ 75.871403837062601, 30.356898747809179 ], [ 75.87139310822603, 30.35666730129277 ] ] ] ] } },
{ "type": "Feature", "properties": { "field_id": 52, "field_name": "partial_34", "field_category": "partially_burnt" }, "geometry": { "type": "MultiPolygon", "coordinates": [ [ [ [ 75.869983167522506, 30.35843955256405 ], [ 75.870165557735518, 30.35843955256405 ], [ 75.870157511108474, 30.358559902634841 ], [ 75.87000194298561, 30.358559902634841 ], [ 75.869983167522506, 30.35843955256405 ] ] ] ] } },
{ "type": "Feature", "properties": { "field_id": 53, "field_name": "partial_35", "field_category": "partially_burnt" }, "geometry": { "type": "MultiPolygon", "coordinates": [ [ [ [ 75.865072881046444, 30.351163038627291 ], [ 75.865178828302533, 30.35116766782318 ], [ 75.86518016940704, 30.35123594843725 ], [ 75.8650648344194, 30.351234791139099 ], [ 75.865072881046444, 30.351163038627291 ] ] ] ] } },
{ "type": "Feature", "properties": { "field_id": 54, "field_name": "partial_36", "field_category": "partially_burnt" }, "geometry": { "type": "MultiPolygon", "coordinates": [ [ [ [ 75.88187524057345, 30.387173303103211 ], [ 75.882068359622522, 30.387170989357429 ], [ 75.882076406249567, 30.387356088845259 ], [ 75.881899380454584, 30.387360716327951 ], [ 75.88187524057345, 30.387173303103211 ] ] ] ] } },
{ "type": "Feature", "properties": { "field_id": 55, "field_name": "partial_37", "field_category": "partially_burnt" }, "geometry": { "type": "MultiPolygon", "coordinates": [ [ [ [ 75.857641716132335, 30.314759111972911 ], [ 75.857981015596181, 30.31481005246723 ], [ 75.858854074607066, 30.314786897472931 ], [ 75.858859439025096, 30.31503928207049 ], [ 75.857641716132335, 30.315016127547331 ], [ 75.857641716132335, 30.314759111972911 ] ] ] ] } },
{ "type": "Feature", "properties": { "field_id": 56, "field_name": "partial_38", "field_category": "partially_burnt" }, "geometry": { "type": "MultiPolygon", "coordinates": [ [ [ [ 75.922765614216843, 30.373127595136609 ], [ 75.922770978634873, 30.372826764498779 ], [ 75.923296691601792, 30.37283602083992 ], [ 75.923275233929672, 30.373146107760999 ], [ 75.922765614216843, 30.373127595136609 ] ] ] ] } },
{ "type": "Feature", "properties": { "field_id": 57, "field_name": "golden-yellow_1", "field_category": "golden_yellow_unburnt" }, "geometry": { "type": "Polygon", "coordinates": [ [ [ 75.903063776528271, 30.382926510730048 ], [ 75.903053047692211, 30.382102777978236 ], [ 75.903686049019726, 30.38213979982396 ], [ 75.903696777855785, 30.383370768208465 ], [ 75.903063776528271, 30.383343002175224 ], [ 75.903063776528271, 30.382926510730048 ] ] ] } },
{ "type": "Feature", "properties": { "field_id": 58, "field_name": "golden-yellow_2", "field_category": "golden_yellow_unburnt" }, "geometry": { "type": "MultiPolygon", "coordinates": [ [ [ [ 75.90272060790987, 30.379266735231848 ], [ 75.90273133674593, 30.378813203323176 ], [ 75.902956642303181, 30.378822459097439 ], [ 75.902956642303181, 30.379673986580986 ], [ 75.902752794418049, 30.379673986580986 ], [ 75.90272060790987, 30.379266735231848 ] ] ] ] } },
{ "type": "Feature", "properties": { "field_id": 59, "field_name": "golden-yellow_3", "field_category": "golden_yellow_unburnt" }, "geometry": { "type": "Polygon", "coordinates": [ [ [ 75.875304949623427, 30.399631328593902 ], [ 75.876581681114516, 30.399483267638622 ], [ 75.87697864804872, 30.400297600114762 ], [ 75.87573410306581, 30.4005011821728 ], [ 75.875304949623427, 30.399631328593902 ] ] ] } },
{ "type": "Feature", "properties": { "field_id": 60, "field_name": "golden-yellow_4", "field_category": "golden_yellow_unburnt" }, "geometry": { "type": "Polygon", "coordinates": [ [ [ 75.883456518275736, 30.417574192276046 ], [ 75.883767654446203, 30.417518679651533 ], [ 75.883821298616311, 30.418499397921622 ], [ 75.88348870477985, 30.418527153960646 ], [ 75.883456518275736, 30.417574192276046 ] ] ] } },
{ "type": "Feature", "properties": { "field_id": 61, "field_name": "golden-yellow_5", "field_category": "golden_yellow_unburnt" }, "geometry": { "type": "Polygon", "coordinates": [ [ [ 75.888214091087889, 30.446680774322594 ], [ 75.88818190457971, 30.446116562865917 ], [ 75.887345055367064, 30.446102688772573 ], [ 75.887371877457213, 30.446643776950069 ], [ 75.88717875840814, 30.446639152277509 ], [ 75.8871894872442, 30.445797458219268 ], [ 75.88868615987451, 30.44581595706784 ], [ 75.88869688871057, 30.446657650966443 ], [ 75.888214091087889, 30.446680774322594 ] ] ] } },
{ "type": "Feature", "properties": { "field_id": 62, "field_name": "golden-yellow_6", "field_category": "golden_yellow_unburnt" }, "geometry": { "type": "Polygon", "coordinates": [ [ [ 75.913055356245707, 30.448659565268894 ], [ 75.913548882704447, 30.448123112883582 ], [ 75.913833196860026, 30.448317345984758 ], [ 75.913269932966898, 30.448807551614212 ], [ 75.913055356245707, 30.448659565268894 ] ] ] } },
{ "type": "Feature", "properties": { "field_id": 63, "field_name": "golden-yellow_7", "field_category": "golden_yellow_unburnt" }, "geometry": { "type": "MultiPolygon", "coordinates": [ [ [ [ 75.879620434745874, 30.401140221721349 ], [ 75.879577519401636, 30.400427687324154 ], [ 75.880038859352197, 30.400399926138512 ], [ 75.880028130516138, 30.401223504623239 ], [ 75.879620434745874, 30.401140221721349 ] ] ] ] } },
{ "type": "Feature", "properties": { "field_id": 64, "field_name": "golden-yellow_8", "field_category": "golden_yellow_unburnt" }, "geometry": { "type": "Polygon", "coordinates": [ [ [ 75.914430792880012, 30.388768683983383 ], [ 75.914452250552131, 30.388583587171652 ], [ 75.916018660616828, 30.388565077471206 ], [ 75.916040118288947, 30.388657625938428 ], [ 75.914763386797858, 30.388676135621346 ], [ 75.914741929125739, 30.388796448474892 ], [ 75.914430792880012, 30.388768683983383 ] ] ] } },
{ "type": "Feature", "properties": { "field_id": 65, "field_name": "golden-yellow_9", "field_category": "golden_yellow_unburnt" }, "geometry": { "type": "Polygon", "coordinates": [ [ [ 75.914516997361289, 30.389080237971282 ], [ 75.914785218262779, 30.389070983168541 ], [ 75.914785218262779, 30.389487448424191 ], [ 75.91449553968917, 30.389505957949911 ], [ 75.914516997361289, 30.389080237971282 ] ] ] } },
{ "type": "Feature", "properties": { "field_id": 66, "field_name": "golden-yellow_10", "field_category": "golden_yellow_unburnt" }, "geometry": { "type": "Polygon", "coordinates": [ [ [ 75.927509747052014, 30.382133787474405 ], [ 75.927635810790349, 30.38169878088306 ], [ 75.928440473494817, 30.381633992351446 ], [ 75.928461931166936, 30.382568794146309 ], [ 75.927528522429753, 30.382587304982746 ], [ 75.927509747052014, 30.382133787474405 ] ] ] } },
{ "type": "Feature", "properties": { "field_id": 67, "field_name": "golden-yellow_11", "field_category": "golden_yellow_unburnt" }, "geometry": { "type": "Polygon", "coordinates": [ [ [ 75.879266383155908, 30.401769468554342 ], [ 75.879652621254053, 30.401353055662756 ], [ 75.880167605384912, 30.401371562940106 ], [ 75.880124690040674, 30.401815736543785 ], [ 75.879266383155908, 30.401769468554342 ] ] ] } },
{ "type": "Feature", "properties": { "field_id": 68, "field_name": "golden-yellow_12", "field_category": "golden_yellow_unburnt" }, "geometry": { "type": "Polygon", "coordinates": [ [ [ 75.901218570861531, 30.379053853169431 ], [ 75.901079095992756, 30.378850226415015 ], [ 75.901626266631794, 30.37884097064337 ], [ 75.901615537795735, 30.379081620421257 ], [ 75.901218570861531, 30.379053853169431 ] ] ] } },
{ "type": "Feature", "properties": { "field_id": 69, "field_name": "golden-yellow_13", "field_category": "golden_yellow_unburnt" }, "geometry": { "type": "Polygon", "coordinates": [ [ [ 75.883488933231988, 30.418800216954189 ], [ 75.88391808667437, 30.418855728853284 ], [ 75.88392881551043, 30.41906852417393 ], [ 75.883499662068047, 30.419031516325422 ], [ 75.883488933231988, 30.418800216954189 ] ] ] } },
{ "type": "Feature", "properties": { "field_id": 70, "field_name": "green_1", "field_category": "green_unburnt" }, "geometry": { "type": "MultiPolygon", "coordinates": [ [ [ [ 75.883941376000053, 30.309206759000062 ], [ 75.884510004000049, 30.309588831000042 ], [ 75.883852863000072, 30.310174671000027 ], [ 75.883294963000083, 30.309813442000063 ], [ 75.883941376000053, 30.309206759000062 ] ] ] ] } },
{ "type": "Feature", "properties": { "field_id": 71, "field_name": "green_2", "field_category": "green_unburnt" }, "geometry": { "type": "MultiPolygon", "coordinates": [ [ [ [ 75.88485804000004, 30.308466615000043 ], [ 75.885297923000053, 30.308864898000024 ], [ 75.884758799000053, 30.309388222000052 ], [ 75.884254543000054, 30.30902930600007 ], [ 75.88485804000004, 30.308466615000043 ] ] ] ] } },
{ "type": "Feature", "properties": { "field_id": 72, "field_name": "green_3", "field_category": "green_unburnt" }, "geometry": { "type": "MultiPolygon", "coordinates": [ [ [ [ 75.884933950000061, 30.318777612000076 ], [ 75.885406019000072, 30.318323799000041 ], [ 75.88594246100007, 30.318717412000069 ], [ 75.885481121000055, 30.319175853000047 ], [ 75.884933950000061, 30.318777612000076 ] ] ] ] } },
{ "type": "Feature", "properties": { "field_id": 73, "field_name": "green_4", "field_category": "green_unburnt" }, "geometry": { "type": "MultiPolygon", "coordinates": [ [ [ [ 75.874727738000047, 30.314231803000041 ], [ 75.874719021000033, 30.314054670000075 ], [ 75.874938291000035, 30.314051196000037 ], [ 75.874936950000063, 30.313872905000039 ], [ 75.874928903000068, 30.313689982000028 ], [ 75.875666511000077, 30.313676089000069 ], [ 75.875661147000073, 30.314229488000024 ], [ 75.874727738000047, 30.314231803000041 ] ] ] ] } },
{ "type": "Feature", "properties": { "field_id": 74, "field_name": "green_5", "field_category": "green_unburnt" }, "geometry": { "type": "MultiPolygon", "coordinates": [ [ [ [ 75.863696657000048, 30.313587692000056 ], [ 75.863627730000076, 30.313335545000029 ], [ 75.863797687000044, 30.313310196000032 ], [ 75.863874242000065, 30.313580843000068 ], [ 75.863696657000048, 30.313587692000056 ] ] ] ] } },
{ "type": "Feature", "properties": { "field_id": 75, "field_name": "green_6", "field_category": "green_unburnt" }, "geometry": { "type": "MultiPolygon", "coordinates": [ [ [ [ 75.861234686000046, 30.30583946400003 ], [ 75.861229322000042, 30.305128440000033 ], [ 75.861220463000052, 30.304671761000066 ], [ 75.861748858000055, 30.304667129000052 ], [ 75.861764525000069, 30.305845076000026 ], [ 75.861234686000046, 30.30583946400003 ] ] ] ] } },
{ "type": "Feature", "properties": { "field_id": 76, "field_name": "green_7", "field_category": "green_unburnt" }, "geometry": { "type": "MultiPolygon", "coordinates": [ [ [ [ 75.855276005000064, 30.32573327700004 ], [ 75.855647429000044, 30.325726332000045 ], [ 75.855612558000075, 30.326558629000033 ], [ 75.85559915400006, 30.326826053000048 ], [ 75.854651, 30.326775116000078 ], [ 75.855276005000064, 30.32573327700004 ] ] ] ] } },
{ "type": "Feature", "properties": { "field_id": 77, "field_name": "green_8", "field_category": "green_unburnt" }, "geometry": { "type": "MultiPolygon", "coordinates": [ [ [ [ 75.878265794000072, 30.304013503000078 ], [ 75.878268476000073, 30.303566569000054 ], [ 75.878794189000075, 30.303559622000023 ], [ 75.878794189000075, 30.304008871000065 ], [ 75.878265794000072, 30.304013503000078 ] ] ] ] } },
{ "type": "Feature", "properties": { "field_id": 78, "field_name": "green_9", "field_category": "green_unburnt" }, "geometry": { "type": "MultiPolygon", "coordinates": [ [ [ [ 75.868998497000064, 30.336831178000068 ], [ 75.86962077000004, 30.336830021000026 ], [ 75.86962077000004, 30.337098553000033 ], [ 75.869002521000084, 30.33710086800005 ], [ 75.868998497000064, 30.336831178000068 ] ] ] ] } },
{ "type": "Feature", "properties": { "field_id": 79, "field_name": "green_10", "field_category": "green_unburnt" }, "geometry": { "type": "MultiPolygon", "coordinates": [ [ [ [ 75.877422329000069, 30.334318623000058 ], [ 75.87789439800008, 30.333897292000074 ], [ 75.878441569000074, 30.334290843000076 ], [ 75.87796413500007, 30.334712171000035 ], [ 75.877422329000069, 30.334318623000058 ] ] ], [ [ [ 75.873488910000049, 30.32291101900006 ], [ 75.873923428000069, 30.322522053000057 ], [ 75.874508150000054, 30.322975846000077 ], [ 75.874014623000051, 30.323341657000071 ], [ 75.873488910000049, 30.32291101900006 ] ] ] ] } },
{ "type": "Feature", "properties": { "field_id": 80, "field_name": "green_11", "field_category": "green_unburnt" }, "geometry": { "type": "MultiPolygon", "coordinates": [ [ [ [ 75.859936523000044, 30.322271808000039 ], [ 75.859662938000042, 30.321195197000065 ], [ 75.860435413000062, 30.321190567000031 ], [ 75.860440778000054, 30.322274123000057 ], [ 75.859936523000044, 30.322271808000039 ] ] ] ] } },
{ "type": "Feature", "properties": { "field_id": 81, "field_name": "green_12", "field_category": "green_unburnt" }, "geometry": { "type": "MultiPolygon", "coordinates": [ [ [ [ 75.846605707000037, 30.317935995000028 ], [ 75.846594095000057, 30.317762341000048 ], [ 75.84675788100003, 30.317768953000041 ], [ 75.846766175000084, 30.317926855000053 ], [ 75.846605707000037, 30.317935995000028 ] ] ] ] } }
]
}
